STARLINK-33556          
1 62109U 24220X   26189.19764605  .00016079  00000+0  59178-3 0  9997
2 62109  43.0000 244.7757 0001255 230.7662 129.3079 15.27622659 91648
STARLINK-33551          
1 62110U 24220Y   26188.62715941  .00014945  00000+0  55091-3 0  9995
2 62110  43.0018 248.2378 0001385 240.0705 120.0009 15.27616668 91535
GUANGCHUAN 01           
1 62111U 24221A   26189.14825551  .00001318  00000+0  86263-4 0  9990
2 62111  49.9444  60.0912 0007144  24.9108 335.2186 15.14776760 89363
GUANGCHUAN 02           
1 62112U 24221B   26189.15147127  .00001541  00000+0  98132-4 0  9994
2 62112  49.9428  60.0201 0006423  72.6189 287.5464 15.14756591 89352
STARLINK-32311          
1 62114U 24222A   26188.42208663  .00011579  00000+0  42977-3 0  9996
2 62114  43.0012 165.0174 0001545 270.4511  89.6164 15.27569034 91393
STARLINK-32470          
1 62115U 24222B   26189.01775417  .00011487  00000+0  42643-3 0  9997
2 62115  43.0040 176.4653 0001395 273.2585  86.8108 15.27570356 91305
STARLINK-32502          
1 62116U 24222C   26189.17034683  .00027840  00000+0  10151-2 0  9996
2 62116  42.9971 175.8859 0000803   0.2015 359.8837 15.27655401 91236
STARLINK-32521          
1 62117U 24222D   26189.22210361  .00013942  00000+0  51504-3 0  9998
2 62117  43.0008 171.8372 0001513 274.7890  85.2789 15.27590154 91222
STARLINK-32549          
1 62118U 24222E   26188.41515524  .00018768  00000+0  68999-3 0  9995
2 62118  43.0017 179.6756 0001514 266.2314  93.8365 15.27570974 91125
STARLINK-32535          
1 62119U 24222F   26188.00162158  .00014188  00000+0  52437-3 0  9994
2 62119  43.0001 179.1343 0001836 277.1874  82.8769 15.27562518 91047
STARLINK-32548          
1 62120U 24222G   26188.98833639  .00014361  00000+0  52988-3 0  9996
2 62120  42.9999 177.0951 0002506 258.6368 101.4202 15.27609108 91151
STARLINK-32525          
1 62121U 24222H   26189.01006168  .00009193  00000+0  34324-3 0  9992
2 62121  43.0024 176.4018 0001627 263.2109  96.8558 15.27575317 91164
STARLINK-32628          
1 62122U 24222J   26189.02802882  .00008912  00000+0  33308-3 0  9990
2 62122  43.0019 176.5387 0001524 270.1968  89.8709 15.27570759 91328
STARLINK-32626          
1 62123U 24222K   26188.45884704  .00009052  00000+0  33821-3 0  9996
2 62123  42.9995 180.0013 0001283 271.5944  88.4761 15.27565286 91060
STARLINK-32608          
1 62124U 24222L   26189.02162646  .00009692  00000+0  36127-3 0  9997
2 62124  43.0016 176.4901 0001309 265.2244  94.8458 15.27579122 91141
STARLINK-32488          
1 62125U 24222M   26188.46912331  .00014097  00000+0  52084-3 0  9994
2 62125  43.0004 180.0797 0001974 284.8720  75.1913 15.27578276 90963
STARLINK-32490          
1 62126U 24222N   26189.00620628  .00009923  00000+0  36968-3 0  9996
2 62126  43.0020 176.3713 0001540 263.1564  96.9112 15.27576713 91151
STARLINK-32557          
1 62127U 24222P   26189.22178186  .00013316  00000+0  49237-3 0  9992
2 62127  42.9970 164.8772 0000249 297.1823  62.9003 15.27589983 91358
STARLINK-32568          
1 62128U 24222Q   26189.00002315  .00003809  00000+0  14788-3 0  9998
2 62128  42.9997 176.8936 0001623 272.2541 208.7269 15.27579534  5823
STARLINK-32462          
1 62129U 24222R   26188.45290373  .00017288  00000+0  63632-3 0  9998
2 62129  43.0006 176.5002 0001952 283.5609  76.5025 15.27578366 91102
STARLINK-32463          
1 62130U 24222S   26189.14468933  .00011816  00000+0  43814-3 0  9997
2 62130  43.0025 175.6920 0001395 256.5715 103.4981 15.27584763 91179
STARLINK-32550          
1 62131U 24222T   26188.46137146  .00018631  00000+0  68385-3 0  9993
2 62131  43.0006 180.0182 0001949 271.9235  88.1393 15.27628140 91110
STARLINK-32507          
1 62132U 24222U   26188.99975981  .00008876  00000+0  33164-3 0  9996
2 62132  42.9983 176.3226 0000954 280.2245  79.8499 15.27583047 91007
STARLINK-32245          
1 62133U 24222V   26188.44728019  .00016409  00000+0  60442-3 0  9995
2 62133  42.9972 179.9150 0000399 312.0854  47.9964 15.27582745 91225
STARLINK-32546          
1 62134U 24222W   26187.99905510  .00012322  00000+0  45687-3 0  9992
2 62134  43.0011 179.1134 0001723 282.6589  77.4070 15.27555417 90923
STARLINK-32545          
1 62135U 24222X   26188.99607249  .00008416  00000+0  31503-3 0  9993
2 62135  42.9990 177.1497 0001620 281.4713  78.5957 15.27576144 91196
STARLINK-32554          
1 62136U 24222Y   26189.02548161  .00010561  00000+0  39275-3 0  9994
2 62136  43.0022 176.5158 0001435 266.9225  93.1463 15.27579313 91200
STARLINK-32570          
1 62137U 24222Z   26189.22804684  .00012201  00000+0  45162-3 0  9997
2 62137  42.9961 175.4500 0000344  76.8734 283.2156 15.27619609 91339
KONDOR-FKA NO. 2        
1 62138U 24223A   26189.18296412  .00002308  00000+0  11118-3 0  9999
2 62138  97.4414  32.3262 0001731  90.8603 269.2830 15.19740601 88894
STARLINK-32529          
1 62139U 24224A   26189.10614811  .00016558  00000+0  60923-3 0  9990
2 62139  42.9982 198.2956 0002123 287.0395  73.0224 15.27614599 90836
