OBJECT_NAME,OBJECT_ID,EPOCH,MEAN_MOTION,ECCENTRICITY,INCLINATION,RA_OF_ASC_NODE,ARG_OF_PERICENTER,MEAN_ANOMALY,EPHEMERIS_TYPE,CLASSIFICATION_TYPE,NORAD_CAT_ID,ELEMENT_SET_NO,REV_AT_EPOCH,BSTAR,MEAN_MOTION_DOT,MEAN_MOTION_DDOT
STARLINK-33556,2024-220X,2026-07-08T04:44:36.618720,15.27622659,.0001255,43.0000,244.7757,230.7662,129.3079,0,U,62109,999,9164,.59178E-3,.16079E-3,0
STARLINK-33551,2024-220Y,2026-07-07T15:03:06.573024,15.27616668,.0001385,43.0018,248.2378,240.0705,120.0009,0,U,62110,999,9153,.55091E-3,.14945E-3,0
GUANGCHUAN 01,2024-221A,2026-07-08T03:33:29.276064,15.14776760,.0007144,49.9444,60.0912,24.9108,335.2186,0,U,62111,999,8936,.86263E-4,.1318E-4,0
GUANGCHUAN 02,2024-221B,2026-07-08T03:38:07.117728,15.14756591,.0006423,49.9428,60.0201,72.6189,287.5464,0,U,62112,999,8935,.98132E-4,.1541E-4,0
STARLINK-32311,2024-222A,2026-07-07T10:07:48.284832,15.27569034,.00015451,43.0012,165.0174,270.4511,89.6164,0,U,62114,999,9139,.42977461E-3,.11579E-3,0
STARLINK-32470,2024-222B,2026-07-08T00:25:33.960288,15.27570356,.0001395,43.0040,176.4653,273.2585,86.8108,0,U,62115,999,9130,.42643E-3,.11487E-3,0
STARLINK-32502,2024-222C,2026-07-08T04:05:17.966112,15.27655401,.0000803,42.9971,175.8859,0.2015,359.8837,0,U,62116,999,9123,.10151E-2,.2784E-3,0
STARLINK-32521,2024-222D,2026-07-08T05:19:49.751904,15.27590154,.0001513,43.0008,171.8372,274.7890,85.2789,0,U,62117,999,9122,.51504E-3,.13942E-3,0
STARLINK-32549,2024-222E,2026-07-07T09:57:49.412736,15.27570974,.00015144,43.0017,179.6756,266.2314,93.8365,0,U,62118,999,9112,.68998975E-3,.18768E-3,0
STARLINK-32535,2024-222F,2026-07-07T00:02:20.104512,15.27562518,.00018367,43.0001,179.1343,277.1874,82.8769,0,U,62119,999,9104,.52436815E-3,.14188E-3,0
STARLINK-32548,2024-222G,2026-07-07T23:43:12.264096,15.27609108,.0002506,42.9999,177.0951,258.6368,101.4202,0,U,62120,999,9115,.52988E-3,.14361E-3,0
STARLINK-32525,2024-222H,2026-07-08T00:14:29.329152,15.27575317,.0001627,43.0024,176.4018,263.2109,96.8558,0,U,62121,999,9116,.34324E-3,.9193E-4,0
STARLINK-32628,2024-222J,2026-07-08T00:40:21.690048,15.27570759,.0001524,43.0019,176.5387,270.1968,89.8709,0,U,62122,999,9132,.33308E-3,.8912E-4,0
STARLINK-32626,2024-222K,2026-07-07T11:00:44.384256,15.27565286,.00012831,42.9995,180.0013,271.5944,88.4761,0,U,62123,999,9106,.33821377E-3,.9052E-4,0
STARLINK-32608,2024-222L,2026-07-08T00:31:08.526144,15.27579122,.0001309,43.0016,176.4901,265.2244,94.8458,0,U,62124,999,9114,.36127E-3,.9692E-4,0
STARLINK-32488,2024-222M,2026-07-07T11:15:32.253984,15.27578276,.00019747,43.0004,180.0797,284.8720,75.1913,0,U,62125,999,9096,.52084143E-3,.14097E-3,0
STARLINK-32490,2024-222N,2026-07-08T00:08:56.222592,15.27576713,.000154,43.0020,176.3713,263.1564,96.9112,0,U,62126,999,9115,.36968E-3,.9923E-4,0
STARLINK-32557,2024-222P,2026-07-08T05:19:21.952704,15.27589983,.0000249,42.9970,164.8772,297.1823,62.9003,0,U,62127,999,9135,.49237E-3,.13316E-3,0
STARLINK-32568,2024-222Q,2026-07-08T00:00:02.000160,15.27579534,.0001623,42.9997,176.8936,272.2541,208.7269,0,U,62128,999,582,.14788E-3,.3809E-4,0
STARLINK-32462,2024-222R,2026-07-07T10:52:10.882272,15.27578366,.00019529,43.0006,176.5002,283.5609,76.5025,0,U,62129,999,9110,.6363152E-3,.17288E-3,0
STARLINK-32463,2024-222S,2026-07-08T03:28:21.158112,15.27584763,.0001395,43.0025,175.6920,256.5715,103.4981,0,U,62130,999,9117,.43814E-3,.11816E-3,0
STARLINK-32550,2024-222T,2026-07-07T11:04:22.494144,15.27628140,.00019495,43.0006,180.0182,271.9235,88.1393,0,U,62131,999,9111,.68384532E-3,.18631E-3,0
STARLINK-32507,2024-222U,2026-07-07T23:59:39.247584,15.27583047,.0000954,42.9983,176.3226,280.2245,79.8499,0,U,62132,999,9100,.33164E-3,.8876E-4,0
STARLINK-32245,2024-222V,2026-07-07T10:44:05.008416,15.27582745,.00003993,42.9972,179.9150,312.0854,47.9964,0,U,62133,999,9122,.60441983E-3,.16409E-3,0
STARLINK-32546,2024-222W,2026-07-06T23:58:38.360640,15.27555417,.00017232,43.0011,179.1134,282.6589,77.4070,0,U,62134,999,9092,.45686592E-3,.12322E-3,0
STARLINK-32545,2024-222X,2026-07-07T23:54:20.663136,15.27576144,.000162,42.9990,177.1497,281.4713,78.5957,0,U,62135,999,9119,.31503E-3,.8416E-4,0
STARLINK-32554,2024-222Y,2026-07-08T00:36:41.611104,15.27579313,.0001435,43.0022,176.5158,266.9225,93.1463,0,U,62136,999,9120,.39275E-3,.10561E-3,0
STARLINK-32570,2024-222Z,2026-07-08T05:28:23.246976,15.27619609,.0000344,42.9961,175.4500,76.8734,283.2156,0,U,62137,999,9133,.45162E-3,.12201E-3,0
KONDOR-FKA NO. 2,2024-223A,2026-07-08T04:23:28.099968,15.19740601,.0001731,97.4414,32.3262,90.8603,269.2830,0,U,62138,999,8889,.11118E-3,.2308E-4,0
STARLINK-32529,2024-224A,2026-07-08T02:32:51.196704,15.27614599,.0002123,42.9982,198.2956,287.0395,73.0224,0,U,62139,999,9083,.60923E-3,.16558E-3,0
